STARLINK-36067          
1 66965U 25288G   25356.25002315 -.00011816  00000+0 -73929-4 0  9998
2 66965  43.0005 108.9609 0001256 272.1242 316.4309 15.75037005  3364
STARLINK-36139          
1 66966U 25288H   25356.25002315  .00083185  00000+0  54058-3 0  9996
2 66966  43.0006 108.9557 0002093 262.9634 327.5283 15.74984031  3363
STARLINK-36136          
1 66967U 25288J   25356.25002315  .00045911  00000+0  30070-3 0  9990
2 66967  43.0004 108.9508 0002040 260.8802 331.5278 15.75011633  3363
STARLINK-36152          
1 66968U 25288K   25356.25002315  .00053986  00000+0  35295-3 0  9996
2 66968  43.0003 108.9459 0001642 266.3748 327.9591 15.74996420  3367
STARLINK-36149          
1 66969U 25288L   25356.25002315  .00056088  00000+0  36634-3 0  9991
2 66969  43.0004 108.9219 0001922 279.5389 324.3667 15.75005333  3361
STARLINK-35703          
1 66970U 25288M   25356.25002315 -.00088281  00000+0 -57592-3 0  9991
2 66970  43.0006 108.9025 0001361 267.6865 343.8694 15.75106570  3365
STARLINK-35678          
1 66971U 25288N   25356.25002315  .00082347  00000+0  53508-3 0  9990
2 66971  43.0004 108.9417 0001528 278.4472 317.7999 15.74991075  3367
STARLINK-34846          
1 66972U 25288P   25356.25002315  .00057026  00000+0  37246-3 0  9998
2 66972  43.0005 108.9369 0001794 264.3699 333.7953 15.74999881  3366
STARLINK-35778          
1 66973U 25288Q   25356.25002315  .00060671  00000+0  39584-3 0  9996
2 66973  43.0005 108.9324 0001993 270.6396 329.4363 15.75002800  3367
STARLINK-35780          
1 66974U 25288R   25356.25002315  .00058623  00000+0  38250-3 0  9990
2 66974  43.0005 108.9275 0001239 274.2442 327.7354 15.75014543  3366
STARLINK-35777          
1 66975U 25288S   25356.25002315  .00040047  00000+0  26295-3 0  9998
2 66975  43.0004 108.9172 0001793 273.1764 332.6586 15.75005666  3360
STARLINK-35772          
1 66976U 25288T   25356.25002315 -.02414271  00000+0 -35364-1 0  9992
2 66976  43.0009 109.5069 0001649 269.3877  99.8597 15.58383310  3360
