CCSDS_OMM_VERS = 2.0
CREATION_DATE  = 
ORIGINATOR     = 

OBJECT_NAME    = STARLINK-36067
OBJECT_ID      = 2025-288G
CENTER_NAME    = EARTH
REF_FRAME      = TEME
TIME_SYSTEM    = UTC
MEAN_ELEMENT_THEORY = SGP/SGP4

EPOCH          = 2025-12-22T06:00:02.000160
MEAN_MOTION    = 15.75037005
ECCENTRICITY   = .00012568
INCLINATION    = 43.0005
RA_OF_ASC_NODE = 108.9609
ARG_OF_PERICENTER = 272.1242
MEAN_ANOMALY   = 316.4309

EPHEMERIS_TYPE = 0
CLASSIFICATION_TYPE = U
NORAD_CAT_ID   = 66965
ELEMENT_SET_NO = 999
REV_AT_EPOCH   = 336
BSTAR          = -.73929329E-4
MEAN_MOTION_DOT = -.11816E-3
MEAN_MOTION_DDOT = 0

CCSDS_OMM_VERS = 2.0
CREATION_DATE  = 
ORIGINATOR     = 

OBJECT_NAME    = STARLINK-36139
OBJECT_ID      = 2025-288H
CENTER_NAME    = EARTH
REF_FRAME      = TEME
TIME_SYSTEM    = UTC
MEAN_ELEMENT_THEORY = SGP/SGP4

EPOCH          = 2025-12-22T06:00:02.000160
MEAN_MOTION    = 15.74984031
ECCENTRICITY   = .00020939
INCLINATION    = 43.0006
RA_OF_ASC_NODE = 108.9557
ARG_OF_PERICENTER = 262.9634
MEAN_ANOMALY   = 327.5283

EPHEMERIS_TYPE = 0
CLASSIFICATION_TYPE = U
NORAD_CAT_ID   = 66966
ELEMENT_SET_NO = 999
REV_AT_EPOCH   = 336
BSTAR          = .54057717E-3
MEAN_MOTION_DOT = .83185E-3
MEAN_MOTION_DDOT = 0

CCSDS_OMM_VERS = 2.0
CREATION_DATE  = 
ORIGINATOR     = 

OBJECT_NAME    = STARLINK-36136
OBJECT_ID      = 2025-288J
CENTER_NAME    = EARTH
REF_FRAME      = TEME
TIME_SYSTEM    = UTC
MEAN_ELEMENT_THEORY = SGP/SGP4

EPOCH          = 2025-12-22T06:00:02.000160
MEAN_MOTION    = 15.75011633
ECCENTRICITY   = .00020404
INCLINATION    = 43.0004
RA_OF_ASC_NODE = 108.9508
ARG_OF_PERICENTER = 260.8802
MEAN_ANOMALY   = 331.5278

EPHEMERIS_TYPE = 0
CLASSIFICATION_TYPE = U
NORAD_CAT_ID   = 66967
ELEMENT_SET_NO = 999
REV_AT_EPOCH   = 336
BSTAR          = .30070417E-3
MEAN_MOTION_DOT = .45911E-3
MEAN_MOTION_DDOT = 0

CCSDS_OMM_VERS = 2.0
CREATION_DATE  = 
ORIGINATOR     = 

OBJECT_NAME    = STARLINK-36152
OBJECT_ID      = 2025-288K
CENTER_NAME    = EARTH
REF_FRAME      = TEME
TIME_SYSTEM    = UTC
MEAN_ELEMENT_THEORY = SGP/SGP4

EPOCH          = 2025-12-22T06:00:02.000160
MEAN_MOTION    = 15.74996420
ECCENTRICITY   = .00016421
INCLINATION    = 43.0003
RA_OF_ASC_NODE = 108.9459
ARG_OF_PERICENTER = 266.3748
MEAN_ANOMALY   = 327.9591

EPHEMERIS_TYPE = 0
CLASSIFICATION_TYPE = U
NORAD_CAT_ID   = 66968
ELEMENT_SET_NO = 999
REV_AT_EPOCH   = 336
BSTAR          = .35295314E-3
MEAN_MOTION_DOT = .53986E-3
MEAN_MOTION_DDOT = 0

CCSDS_OMM_VERS = 2.0
CREATION_DATE  = 
ORIGINATOR     = 

OBJECT_NAME    = STARLINK-36149
OBJECT_ID      = 2025-288L
CENTER_NAME    = EARTH
REF_FRAME      = TEME
TIME_SYSTEM    = UTC
MEAN_ELEMENT_THEORY = SGP/SGP4

EPOCH          = 2025-12-22T06:00:02.000160
MEAN_MOTION    = 15.75005333
ECCENTRICITY   = .00019229
INCLINATION    = 43.0004
RA_OF_ASC_NODE = 108.9219
ARG_OF_PERICENTER = 279.5389
MEAN_ANOMALY   = 324.3667

EPHEMERIS_TYPE = 0
CLASSIFICATION_TYPE = U
NORAD_CAT_ID   = 66969
ELEMENT_SET_NO = 999
REV_AT_EPOCH   = 336
BSTAR          = .36633717E-3
MEAN_MOTION_DOT = .56088E-3
MEAN_MOTION_DDOT = 0

CCSDS_OMM_VERS = 2.0
CREATION_DATE  = 
ORIGINATOR     = 

OBJECT_NAME    = STARLINK-35703
OBJECT_ID      = 2025-288M
CENTER_NAME    = EARTH
REF_FRAME      = TEME
TIME_SYSTEM    = UTC
MEAN_ELEMENT_THEORY = SGP/SGP4

EPOCH          = 2025-12-22T06:00:02.000160
MEAN_MOTION    = 15.75106570
ECCENTRICITY   = .00013619
INCLINATION    = 43.0006
RA_OF_ASC_NODE = 108.9025
ARG_OF_PERICENTER = 267.6865
MEAN_ANOMALY   = 343.8694

EPHEMERIS_TYPE = 0
CLASSIFICATION_TYPE = U
NORAD_CAT_ID   = 66970
ELEMENT_SET_NO = 999
REV_AT_EPOCH   = 336
BSTAR          = -.57591851E-3
MEAN_MOTION_DOT = -.88281E-3
MEAN_MOTION_DDOT = 0

CCSDS_OMM_VERS = 2.0
CREATION_DATE  = 
ORIGINATOR     = 

OBJECT_NAME    = STARLINK-35678
OBJECT_ID      = 2025-288N
CENTER_NAME    = EARTH
REF_FRAME      = TEME
TIME_SYSTEM    = UTC
MEAN_ELEMENT_THEORY = SGP/SGP4

EPOCH          = 2025-12-22T06:00:02.000160
MEAN_MOTION    = 15.74991075
ECCENTRICITY   = .00015282
INCLINATION    = 43.0004
RA_OF_ASC_NODE = 108.9417
ARG_OF_PERICENTER = 278.4472
MEAN_ANOMALY   = 317.7999

EPHEMERIS_TYPE = 0
CLASSIFICATION_TYPE = U
NORAD_CAT_ID   = 66971
ELEMENT_SET_NO = 999
REV_AT_EPOCH   = 336
BSTAR          = .5350779E-3
MEAN_MOTION_DOT = .82347E-3
MEAN_MOTION_DDOT = 0

CCSDS_OMM_VERS = 2.0
CREATION_DATE  = 
ORIGINATOR     = 

OBJECT_NAME    = STARLINK-34846
OBJECT_ID      = 2025-288P
CENTER_NAME    = EARTH
REF_FRAME      = TEME
TIME_SYSTEM    = UTC
MEAN_ELEMENT_THEORY = SGP/SGP4

EPOCH          = 2025-12-22T06:00:02.000160
MEAN_MOTION    = 15.74999881
ECCENTRICITY   = .00017949
INCLINATION    = 43.0005
RA_OF_ASC_NODE = 108.9369
ARG_OF_PERICENTER = 264.3699
MEAN_ANOMALY   = 333.7953

EPHEMERIS_TYPE = 0
CLASSIFICATION_TYPE = U
NORAD_CAT_ID   = 66972
ELEMENT_SET_NO = 999
REV_AT_EPOCH   = 336
BSTAR          = .37246375E-3
MEAN_MOTION_DOT = .57026E-3
MEAN_MOTION_DDOT = 0

CCSDS_OMM_VERS = 2.0
CREATION_DATE  = 
ORIGINATOR     = 

OBJECT_NAME    = STARLINK-35778
OBJECT_ID      = 2025-288Q
CENTER_NAME    = EARTH
REF_FRAME      = TEME
TIME_SYSTEM    = UTC
MEAN_ELEMENT_THEORY = SGP/SGP4

EPOCH          = 2025-12-22T06:00:02.000160
MEAN_MOTION    = 15.75002800
ECCENTRICITY   = .0001993
INCLINATION    = 43.0005
RA_OF_ASC_NODE = 108.9324
ARG_OF_PERICENTER = 270.6396
MEAN_ANOMALY   = 329.4363

EPHEMERIS_TYPE = 0
CLASSIFICATION_TYPE = U
NORAD_CAT_ID   = 66973
ELEMENT_SET_NO = 999
REV_AT_EPOCH   = 336
BSTAR          = .39584379E-3
MEAN_MOTION_DOT = .60671E-3
MEAN_MOTION_DDOT = 0

CCSDS_OMM_VERS = 2.0
CREATION_DATE  = 
ORIGINATOR     = 

OBJECT_NAME    = STARLINK-35780
OBJECT_ID      = 2025-288R
CENTER_NAME    = EARTH
REF_FRAME      = TEME
TIME_SYSTEM    = UTC
MEAN_ELEMENT_THEORY = SGP/SGP4

EPOCH          = 2025-12-22T06:00:02.000160
MEAN_MOTION    = 15.75014543
ECCENTRICITY   = .00012391
INCLINATION    = 43.0005
RA_OF_ASC_NODE = 108.9275
ARG_OF_PERICENTER = 274.2442
MEAN_ANOMALY   = 327.7354

EPHEMERIS_TYPE = 0
CLASSIFICATION_TYPE = U
NORAD_CAT_ID   = 66974
ELEMENT_SET_NO = 999
REV_AT_EPOCH   = 336
BSTAR          = .38250434E-3
MEAN_MOTION_DOT = .58623E-3
MEAN_MOTION_DDOT = 0

CCSDS_OMM_VERS = 2.0
CREATION_DATE  = 
ORIGINATOR     = 

OBJECT_NAME    = STARLINK-35777
OBJECT_ID      = 2025-288S
CENTER_NAME    = EARTH
REF_FRAME      = TEME
TIME_SYSTEM    = UTC
MEAN_ELEMENT_THEORY = SGP/SGP4

EPOCH          = 2025-12-22T06:00:02.000160
MEAN_MOTION    = 15.75005666
ECCENTRICITY   = .0001793
INCLINATION    = 43.0004
RA_OF_ASC_NODE = 108.9172
ARG_OF_PERICENTER = 273.1764
MEAN_ANOMALY   = 332.6586

EPHEMERIS_TYPE = 0
CLASSIFICATION_TYPE = U
NORAD_CAT_ID   = 66975
ELEMENT_SET_NO = 999
REV_AT_EPOCH   = 336
BSTAR          = .26295127E-3
MEAN_MOTION_DOT = .40047E-3
MEAN_MOTION_DDOT = 0

CCSDS_OMM_VERS = 2.0
CREATION_DATE  = 
ORIGINATOR     = 

OBJECT_NAME    = STARLINK-35772
OBJECT_ID      = 2025-288T
CENTER_NAME    = EARTH
REF_FRAME      = TEME
TIME_SYSTEM    = UTC
MEAN_ELEMENT_THEORY = SGP/SGP4

EPOCH          = 2025-12-22T06:00:02.000160
MEAN_MOTION    = 15.58383310
ECCENTRICITY   = .00016497
INCLINATION    = 43.0009
RA_OF_ASC_NODE = 109.5069
ARG_OF_PERICENTER = 269.3877
MEAN_ANOMALY   = 99.8597

EPHEMERIS_TYPE = 0
CLASSIFICATION_TYPE = U
NORAD_CAT_ID   = 66976
ELEMENT_SET_NO = 999
REV_AT_EPOCH   = 336
BSTAR          = -.35363661E-1
MEAN_MOTION_DOT = -.2414271E-1
MEAN_MOTION_DDOT = 0

